NORAD_CAT_ID,OBJECT_NAME,OBJECT_TYPE,EPOCH,MEAN_MOTION,ECCENTRICITY,INCLINATION,RA_OF_ASC_NODE,ARG_OF_PERICENTER,MEAN_ANOMALY,BSTAR,MEAN_MOTION_DOT,MEAN_MOTION_DDOT,TLE_LINE0,TLE_LINE1,TLE_LINE2,SEMIMAJOR_AXIS,PERIOD,APOGEE,PERIGEE,DECAYED
52297.0,STARLINK-3758,PAYLOAD,2022-07-28 14:00:01,15.08821261,0.0001645,53.2139,265.3065,54.8575,276.2231,0.0024961,0.00039641,0.0,0 STARLINK-3758,1 52297U 22041AN  22209.58334491  .00039641  00000-0  24961-2 0  9993,2 52297  53.2139 265.3065 0001645  54.8575 276.2231 15.08821261  1308,6917.938,95.439,540.941,538.665,0.0
52297.0,STARLINK-3758,PAYLOAD,2022-07-28 22:00:00,15.08840366,0.0001492,53.2137,263.8085,60.4341,282.243,0.00029534,4.416e-05,0.0,0 STARLINK-3758,1 52297U 22041AN  22209.91667824  .00004416  00000-0  29534-3 0  9993,2 52297  53.2137 263.8085 0001492  60.4341 282.2430 15.08840366  1300,6917.879,95.438,540.776,538.712,0.0
52297.0,STARLINK-3758,PAYLOAD,2022-07-29 06:00:00,15.08863178,0.0001492,53.2137,262.3124,62.2987,291.9681,-0.0014922,-0.00023973,0.0,0 STARLINK-3758,1 52297U 22041AN  22210.25001157 -.00023973  00000-0 -14922-2 0  9998,2 52297  53.2137 262.3124 0001492  62.2987 291.9681 15.08863178 16536,6917.81,95.436,540.707,538.6419999999998,0.0
52297.0,STARLINK-3758,PAYLOAD,2022-07-29 14:00:01,15.08836479,0.000157,53.2132,260.8173,53.745,312.1374,-0.00036524,-6.096e-05,0.0,0 STARLINK-3758,1 52297U 22041AN  22210.58334491 -.00006096  00000-0 -36524-3 0  9994,2 52297  53.2132 260.8173 0001570  53.7450 312.1374 15.08836479  1303,6917.891,95.438,540.842,538.67,0.0
52297.0,STARLINK-3758,PAYLOAD,2022-07-29 22:00:00,15.08812439,0.0001381,53.2129,259.3191,58.9434,318.5346,0.00076891,0.00011961,0.0,0 STARLINK-3758,1 52297U 22041AN  22210.91667824  .00011961  00000-0  76891-3 0  9996,2 52297  53.2129 259.3191 0001381  58.9434 318.5346 15.08812439  1300,6917.965,95.439,540.785,538.874,0.0
52297.0,STARLINK-3758,PAYLOAD,2022-07-30 14:00:01,15.08804123,0.0001543,53.2125,256.3279,51.9717,348.656,0.0025271,0.00040121,0.0,0 STARLINK-3758,1 52297U 22041AN  22211.58334491  .00040121  00000-0  25271-2 0  9996,2 52297  53.2125 256.3279 0001543  51.9717 348.6560 15.08804123 16744,6917.99,95.44,540.922,538.788,0.0
52297.0,STARLINK-3758,PAYLOAD,2022-07-30 22:00:00,15.08812804,0.0001406,53.2132,254.8296,58.2775,353.9274,0.0012680999999999,0.00019936,0.0,0 STARLINK-3758,1 52297U 22041AN  22211.91667824  .00019936  00000-0  12681-2 0  9993,2 52297  53.2132 254.8296 0001406  58.2775 353.9274 15.08812804  1308,6917.964,95.439,540.8009999999998,538.856,0.0
52297.0,STARLINK-3758,PAYLOAD,2022-07-31 06:00:02,15.08845332,0.0001503,53.2138,253.3337,58.4881,5.3449,-0.0020141,-0.00032204,0.0,0 STARLINK-3758,1 52297U 22041AN  22212.25002315 -.00032204  00000-0 -20141-2 0  9994,2 52297  53.2138 253.3337 0001503  58.4881   5.3449 15.08845332 16841,6917.864000000001,95.437,540.769,538.689,0.0
52297.0,STARLINK-3758,PAYLOAD,2022-07-31 14:00:01,15.08809087,0.0001602,53.2137,251.8384,50.5852,24.776,0.0024588,0.00039028,0.0,0 STARLINK-3758,1 52297U 22041AN  22212.58334491  .00039028  00000-0  24588-2 0  9991,2 52297  53.2137 251.8384 0001602  50.5852  24.7760 15.08809087  1309,6917.975,95.44,540.948,538.732,0.0
52297.0,STARLINK-3758,PAYLOAD,2022-07-31 22:00:00,15.08812608,0.0001459,53.2138,250.3401,56.8691,30.0736,0.0016427,0.00025933,0.0,0 STARLINK-3758,1 52297U 22041AN  22212.91667824  .00025933  00000-0  16427-2 0  9990,2 52297  53.2138 250.3401 0001459  56.8691  30.0736 15.08812608  1300,6917.964,95.439,540.8380000000002,538.82,0.0
52297.0,STARLINK-3758,PAYLOAD,2022-08-01 14:00:01,15.08817208,0.0001688,53.2139,247.3488,49.5639,60.5451,0.0022876,0.00036284,0.0,0 STARLINK-3758,1 52297U 22041AN  22213.58334491  .00036284  00000-0  22876-2 0  9991,2 52297  53.2139 247.3488 0001688  49.5639  60.5451 15.08817208  1300,6917.95,95.439,540.9830000000002,538.6469999999998,0.0
52297.0,STARLINK-3758,PAYLOAD,2022-08-01 22:00:00,15.08817094,0.0001538,53.2142,245.8504,55.7509,65.9491,0.0020004,0.00031672,0.0,0 STARLINK-3758,1 52297U 22041AN  22213.91667824  .00031672  00000-0  20004-2 0  9994,2 52297  53.2142 245.8504 0001538  55.7509  65.9491 15.08817094  1301,6917.95,95.439,540.879,538.751,0.0
52297.0,STARLINK-3758,PAYLOAD,2022-08-02 14:00:01,15.08827188,0.0001769,53.2144,242.8591,49.2872,95.5916,0.0017864,0.00028247,0.0,0 STARLINK-3758,1 52297U 22041AN  22214.58334491  .00028247  00000-0  17864-2 0  9993,2 52297  53.2144 242.8591 0001769  49.2872  95.5916 15.08827188  1309,6917.92,95.438,541.008,538.561,0.0
52297.0,STARLINK-3758,PAYLOAD,2022-08-03 14:00:01,15.08838376,0.0001811999999999,53.2149,238.3695,49.6825,129.9888,0.0011152999999999,0.00017506,0.0,0 STARLINK-3758,1 52297U 22041AN  22215.58334491  .00017506  00000-0  11153-2 0  9995,2 52297  53.2149 238.3695 0001812  49.6825 129.9888 15.08838376  1301,6917.885,95.438,541.004,538.497,0.0
52297.0,STARLINK-3758,PAYLOAD,2022-08-03 22:00:01,15.08826895,0.0001636,53.2151,236.8713,56.1442,135.1998,0.0023549,0.00037376,0.0,0 STARLINK-3758,1 52297U 22041AN  22215.91668981  .00037376  00000-0  23549-2 0  9995,2 52297  53.2151 236.8713 0001636  56.1442 135.1998 15.08826895 17390,6917.92,95.438,540.9169999999998,538.654,0.0
52297.0,STARLINK-3758,PAYLOAD,2022-08-04 14:00:01,15.08848874,0.0001810999999999,53.215,233.88,50.3858,164.0979,0.0003506999999999,5.299e-05,0.0,0 STARLINK-3758,1 52297U 22041AN  22216.58334491  .00005299  00000-0  35070-3 0  9997,2 52297  53.2150 233.8800 0001811  50.3858 164.0979 15.08848874 17497,6917.853,95.437,540.971,538.465,0.0
52297.0,STARLINK-3758,PAYLOAD,2022-08-04 22:00:00,15.08829666,0.0001633,53.2151,232.382,57.0023,169.0974,0.0024634,0.00039124,0.0,0 STARLINK-3758,1 52297U 22041AN  22216.91667824  .00039124  00000-0  24634-2 0  9990,2 52297  53.2151 232.3820 0001633  57.0023 169.0974 15.08829666  1305,6917.9119999999975,95.438,540.9069999999998,538.6469999999998,0.0
52297.0,STARLINK-3758,PAYLOAD,2022-08-05 14:00:01,15.08829799,0.000171,53.2147,229.3907,49.0924,200.2744,-0.00040825,-6.778e-05,0.0,0 STARLINK-3758,1 52297U 22041AN  22217.58335648 -.00006778  00000-0 -40825-3 0  9992,2 52297  53.2147 229.3907 0001710  49.0924 200.2744 15.08829799 17643,6917.9119999999975,95.438,540.96,538.594,0.0
52297.0,STARLINK-3758,PAYLOAD,2022-08-05 22:00:00,15.08805507,0.0001568,53.2147,227.8928,56.5387,204.3542,0.0025669,0.00040762,0.0,0 STARLINK-3758,1 52297U 22041AN  22217.91667824  .00040762  00000-0  25669-2 0  9990,2 52297  53.2147 227.8928 0001568  56.5387 204.3542 15.08805507  1304,6917.986,95.44,540.936,538.766,0.0
52297.0,STARLINK-3758,PAYLOAD,2022-08-06 11:09:24,15.08836173,0.0001751999999999,53.2154,225.4328,54.4875,305.6281,-7.174e-05,-1.4300000000000004e-05,0.0,0 STARLINK-3758,1 52297U 22041AN  22218.46486568 -.00001430  00000-0 -71740-4 0  9999,2 52297  53.2154 225.4328 0001752  54.4875 305.6281 15.08836173 16555,6917.892,95.438,540.969,538.545,0.0
52297.0,STARLINK-3758,PAYLOAD,2022-08-06 22:00:00,15.08808436,0.0001628,53.214,223.4038,57.8699,237.7676,0.0026285,0.00041757,0.0,0 STARLINK-3758,1 52297U 22041AN  22218.91667824  .00041757  00000-0  26285-2 0  9991,2 52297  53.2140 223.4038 0001628  57.8699 237.7676 15.08808436 17846,6917.977,95.44,540.9680000000002,538.716,0.0
52297.0,STARLINK-3758,PAYLOAD,2022-08-07 14:00:01,15.08844729,0.0001791,53.2136,220.4125,50.7336,268.0614,-0.0014445,-0.00023207,0.0,0 STARLINK-3758,1 52297U 22041AN  22219.58334491 -.00023207  00000-0 -14445-2 0  9993,2 52297  53.2136 220.4125 0001791  50.7336 268.0614 15.08844729 17941,6917.866,95.437,540.97,538.492,0.0
52297.0,STARLINK-3758,PAYLOAD,2022-08-07 22:00:00,15.08814432,0.0001713,53.2136,218.9146,58.2169,272.178,0.0027405,0.00043567,0.0,0 STARLINK-3758,1 52297U 22041AN  22219.91667824  .00043567  00000-0  27405-2 0  9998,2 52297  53.2136 218.9146 0001713  58.2169 272.1780 15.08814432  1308,6917.959,95.439,541.009,538.638,0.0
52297.0,STARLINK-3758,PAYLOAD,2022-08-08 06:00:00,15.0884698,0.0001882,53.2135,217.4198,54.0022,287.9805,-0.0010665999999999,-0.00017226,0.0,0 STARLINK-3758,1 52297U 22041AN  22220.25001157 -.00017226  00000-0 -10666-2 0  9994,2 52297  53.2135 217.4198 0001882  54.0022 287.9805 15.08846980 18041,6917.859,95.437,541.026,538.422,0.0
52297.0,STARLINK-3758,PAYLOAD,2022-08-08 14:00:01,15.08859599,0.0001878,53.2134,215.923,51.3809,302.2578,-0.0014681,-0.0002359,0.0,0 STARLINK-3758,1 52297U 22041AN  22220.58335648 -.00023590  00000-0 -14681-2 0  9997,2 52297  53.2134 215.9230 0001878  51.3809 302.2578 15.08859599  1307,6917.82,95.436,540.985,538.386,0.0
52297.0,STARLINK-3758,PAYLOAD,2022-08-08 22:00:00,15.08831198,0.0001806,53.2135,214.4252,58.5454,306.6454,0.0028609,0.00045527,0.0,0 STARLINK-3758,1 52297U 22041AN  22220.91667824  .00045527  00000-0  28609-2 0  9995,2 52297  53.2135 214.4252 0001806  58.5454 306.6454 15.08831198 18148,6917.906999999997,95.438,541.0219999999998,538.523,0.0
52297.0,STARLINK-3758,PAYLOAD,2022-08-09 14:00:01,15.08853125,0.0001892,53.2136,211.4335,50.6135,337.7913,-0.0024105,-0.00038461,0.0,0 STARLINK-3758,1 52297U 22041AN  22221.58334491 -.00038461  00000-0 -24105-2 0  9998,2 52297  53.2136 211.4335 0001892  50.6135 337.7913 15.08853125  1301,6917.84,95.437,541.014,538.396,0.0
52297.0,STARLINK-3758,PAYLOAD,2022-08-09 22:00:00,15.08820152,0.0001804,53.2138,209.9356,57.2037,342.8012,0.0025296999999999,0.0004017999999999,0.0,0 STARLINK-3758,1 52297U 22041AN  22221.91667824  .00040180  00000-0  25297-2 0  9996,2 52297  53.2138 209.9356 0001804  57.2037 342.8012 15.08820152  1306,6917.941,95.439,541.054,538.558,0.0
52297.0,STARLINK-3758,PAYLOAD,2022-08-10 06:00:00,15.08846267,0.0001988,53.2139,208.4409,52.7878,358.8087,-0.00073646,-0.00011992,0.0,0 STARLINK-3758,1 52297U 22041AN  22222.25001157 -.00011992  00000-0 -73646-3 0  9998,2 52297  53.2139 208.4409 0001988  52.7878 358.8087 15.08846267 18353,6917.861,95.437,541.102,538.351,0.0
